NORAD_CAT_ID,OBJECT_NAME,OBJECT_TYPE,EPOCH,MEAN_MOTION,ECCENTRICITY,INCLINATION,RA_OF_ASC_NODE,ARG_OF_PERICENTER,MEAN_ANOMALY,BSTAR,MEAN_MOTION_DOT,MEAN_MOTION_DDOT,TLE_LINE0,TLE_LINE1,TLE_LINE2,SEMIMAJOR_AXIS,PERIOD,APOGEE,PERIGEE,DECAYED
55950.0,STARLINK-5911,PAYLOAD,2024-05-14 17:06:17,14.98327853,0.0002996,69.9988,138.6694,267.5127,92.5689,-9.4942e-05,-1.226e-05,0.0,0 STARLINK-5911,1 55950U 23037AN  24135.71270544 -.00001226  00000-0 -94942-4 0  9999,2 55950  69.9988 138.6694 0002996 267.5127  92.5689 14.98327853 65356,6950.2,96.107,574.147,569.982,0.0
55950.0,STARLINK-5911,PAYLOAD,2024-05-15 09:07:38,14.98320486,0.0002949,69.9985,136.9849,266.6626,93.4196,0.00014116,1.591e-05,0.0,0 STARLINK-5911,1 55950U 23037AN  24136.38030773  .00001591  00000-0  14116-3 0  9998,2 55950  69.9985 136.9849 0002949 266.6626  93.4196 14.98320486 65110,6950.222,96.108,574.137,570.038,0.0
55950.0,STARLINK-5911,PAYLOAD,2024-05-16 05:57:21,14.98349348,0.0003027,69.9984,134.7968,266.9914,93.0899,0.00029499,3.43e-05,0.0,0 STARLINK-5911,1 55950U 23037AN  24137.24816662  .00003430  00000-0  29499-3 0  9997,2 55950  69.9984 134.7968 0003027 266.9914  93.0899 14.98349348 65583,6950.133,96.106,574.102,569.894,0.0
55950.0,STARLINK-5911,PAYLOAD,2024-05-16 10:45:45,14.98349463,0.0002989,69.9985,134.2922,266.6327,93.449,0.00028906,3.359e-05,0.0,0 STARLINK-5911,1 55950U 23037AN  24137.44844476  .00003359  00000-0  28906-3 0  9995,2 55950  69.9985 134.2922 0002989 266.6327  93.4490 14.98349463 65275,6950.133,96.106,574.075,569.92,0.0
55950.0,STARLINK-5911,PAYLOAD,2024-05-16 17:10:18,14.98338497,0.000243,69.9989,133.6164,273.9831,86.105,0.00014477,1.635e-05,0.0,0 STARLINK-5911,1 55950U 23037AN  24137.71549489  .00001635  00000-0  14477-3 0  9994,2 55950  69.9989 133.6164 0002430 273.9831  86.1050 14.98338497 65650,6950.167,96.106,573.721,570.343,0.0
55950.0,STARLINK-5911,PAYLOAD,2024-05-17 05:59:23,14.98331838,0.0003109,69.998,132.2718,270.1603,89.92,-3.6654e-05,-5.3e-06,0.0,0 STARLINK-5911,1 55950U 23037AN  24138.24957987 -.00000530  00000-0 -36654-4 0  9996,2 55950  69.9980 132.2718 0003109 270.1603  89.9200 14.98331838 65730,6950.187,96.107,574.213,569.891,0.0
55950.0,STARLINK-5911,PAYLOAD,2024-05-17 09:11:39,14.98331564,0.0003099,69.9983,131.9356,270.1331,89.9473,-3.2532e-05,-4.81e-06,0.0,0 STARLINK-5911,1 55950U 23037AN  24138.38309961 -.00000481  00000-0 -32532-4 0  9990,2 55950  69.9983 131.9356 0003099 270.1331  89.9473 14.98331564 65416,6950.188,96.107,574.207,569.899,0.0
55950.0,STARLINK-5911,PAYLOAD,2024-05-17 17:12:20,14.98332818,0.0002973,69.9988,131.0944,271.3588,88.7231,-5.7635e-05,-7.81e-06,0.0,0 STARLINK-5911,1 55950U 23037AN  24138.71689906 -.00000781  00000-0 -57635-4 0  9991,2 55950  69.9988 131.0944 0002973 271.3588  88.7231 14.98332818 65469,6950.184,96.107,574.115,569.983,0.0
55950.0,STARLINK-5911,PAYLOAD,2024-05-18 06:01:24,14.98344188,0.0002975,69.9986,129.7472,267.9122,92.1696,-0.00016951,-2.116e-05,0.0,0 STARLINK-5911,1 55950U 23037AN  24139.25097298 -.00002116  00000-0 -16951-3 0  9997,2 55950  69.9986 129.7472 0002975 267.9122  92.1696 14.98344188 65887,6950.149,96.106,574.082,569.946,0.0
55950.0,STARLINK-5911,PAYLOAD,2024-05-18 09:13:40,14.98343199,0.0003127,69.9985,129.4107,271.0168,89.0633,-0.00012092,-1.536e-05,0.0,0 STARLINK-5911,1 55950U 23037AN  24139.38449134 -.00001536  00000-0 -12092-3 0  9998,2 55950  69.9985 129.4107 0003127 271.0168  89.0633 14.98343199 65566,6950.152,96.106,574.19,569.844,0.0
55950.0,STARLINK-5911,PAYLOAD,2024-05-18 22:02:44,14.98330693,0.0002994,69.9986,128.0643,270.7079,89.3737,-4.2431e-05,-5.99e-06,0.0,0 STARLINK-5911,1 55950U 23037AN  24139.91857422 -.00000599  00000-0 -42431-4 0  9999,2 55950  69.9986 128.0643 0002994 270.7079  89.3737 14.98330693 65647,6950.191,96.107,574.137,569.975,0.0
55950.0,STARLINK-5911,PAYLOAD,2024-05-19 04:27:17,14.98326718,0.0002992,69.9986,127.391,270.8575,89.2241,1.4106e-05,7.5e-07,0.0,0 STARLINK-5911,1 55950U 23037AN  24140.18561510  .00000075  00000-0  14106-4 0  9995,2 55950  69.9986 127.3910 0002992 270.8575  89.2241 14.98326718 66021,6950.203,96.107,574.148,569.989,0.0
55950.0,STARLINK-5911,PAYLOAD,2024-05-19 09:15:41,14.98330043,0.0002948,69.9986,126.8859,270.6153,89.4668,4.2085e-05,4.09e-06,0.0,0 STARLINK-5911,1 55950U 23037AN  24140.38589226  .00000409  00000-0  42085-4 0  9999,2 55950  69.9986 126.8859 0002948 270.6153  89.4668 14.98330043 65714,6950.193,96.107,574.107,570.009,0.0
55950.0,STARLINK-5911,PAYLOAD,2024-05-20 04:29:17,14.98331054,0.0002913,69.9989,124.8661,270.7222,89.3603,1.4595e-05,8.1e-07,0.0,0 STARLINK-5911,1 55950U 23037AN  24141.18701222  .00000081  00000-0  14595-4 0  9991,2 55950  69.9989 124.8661 0002913 270.7222  89.3603 14.98331054 66178,6950.19,96.107,574.079,570.03,0.0
55950.0,STARLINK-5911,PAYLOAD,2024-05-20 09:17:41,14.98333772,0.000285,69.9989,124.3611,270.6274,89.4558,2.4541e-05,2e-06,0.0,0 STARLINK-5911,1 55950U 23037AN  24141.38728989  .00000200  00000-0  24541-4 0  9997,2 55950  69.9989 124.3611 0002850 270.6274  89.4558 14.98333772 65868,6950.181,96.107,574.027,570.065,0.0
55950.0,STARLINK-5911,PAYLOAD,2024-05-21 04:31:18,14.98327561,0.0002887,69.9989,122.3416,266.9845,93.0984,-9.5536e-06,-2.07e-06,0.0,0 STARLINK-5911,1 55950U 23037AN  24142.18841380 -.00000207  00000-0 -95536-5 0  9999,2 55950  69.9989 122.3416 0002887 266.9845  93.0984 14.98327561 66326,6950.2,96.107,574.072,570.059,0.0
55950.0,STARLINK-5911,PAYLOAD,2024-05-21 07:43:35,14.98327673,0.0002712,69.9994,122.0057,261.4332,98.652,4.3966e-06,-4.1e-07,0.0,0 STARLINK-5911,1 55950U 23037AN  24142.32193349 -.00000041  00000-0  43966-5 0  9995,2 55950  69.9994 122.0057 0002712 261.4332  98.6520 14.98327673 66004,6950.2,96.107,573.95,570.18,0.0
55950.0,STARLINK-5911,PAYLOAD,2024-05-21 22:08:47,14.98329137,0.0002704,69.9991,120.4907,258.3003,101.7853,-2.5435e-05,-3.96e-06,0.0,0 STARLINK-5911,1 55950U 23037AN  24142.92277329 -.00000396  00000-0 -25435-4 0  9996,2 55950  69.9991 120.4907 0002704 258.3003 101.7853 14.98329137 66099,6950.196,96.107,573.94,570.181,0.0
55950.0,STARLINK-5911,PAYLOAD,2024-05-22 04:33:19,14.98329935,0.0002648,69.9994,119.8177,257.4855,102.6008,-4.5739e-05,-6.39e-06,0.0,0 STARLINK-5911,1 55950U 23037AN  24143.18981343 -.00000639  00000-0 -45739-4 0  9992,2 55950  69.9994 119.8177 0002648 257.4855 102.6008 14.98329935 66475,6950.193,96.107,573.899,570.218,0.0
55950.0,STARLINK-5911,PAYLOAD,2024-05-22 07:45:35,14.98329848,0.0002703,69.9994,119.4812,260.0124,100.073,-2.0718e-05,-3.4e-06,0.0,0 STARLINK-5911,1 55950U 23037AN  24143.32333284 -.00000340  00000-0 -20718-4 0  9992,2 55950  69.9994 119.4812 0002703 260.0124 100.0730 14.98329848 66150,6950.193,96.107,573.937,570.18,0.0
55950.0,STARLINK-5911,PAYLOAD,2024-05-22 22:10:48,14.98328323,0.0002727,69.9994,117.9661,259.6668,100.4184,1.3292e-05,6.6e-07,0.0,0 STARLINK-5911,1 55950U 23037AN  24143.92417275  .00000066  00000-0  13292-4 0  9993,2 55950  69.9994 117.9661 0002727 259.6668 100.4184 14.98328323 66242,6950.198,96.107,573.958,570.168,0.0
55950.0,STARLINK-5911,PAYLOAD,2024-05-23 04:35:20,14.9832735,0.0002746,69.9994,117.2929,259.5416,100.5433,-1.969e-07,-9.5e-07,0.0,0 STARLINK-5911,1 55950U 23037AN  24144.19121395 -.00000095  00000-0 -19690-6 0  9992,2 55950  69.9994 117.2929 0002746 259.5416 100.5433 14.98327350 66622,6950.201,96.107,573.975,570.158,0.0
55950.0,STARLINK-5911,PAYLOAD,2024-05-23 07:47:37,14.98327701,0.0002744,69.9995,116.9564,259.4826,100.6024,3.0716e-06,-5.6e-07,0.0,0 STARLINK-5911,1 55950U 23037AN  24144.32473381 -.00000056  00000-0  30716-5 0  9999,2 55950  69.9995 116.9564 0002744 259.4826 100.6024 14.98327701 66308,6950.2,96.107,573.972,570.158,0.0
55950.0,STARLINK-5911,PAYLOAD,2024-05-24 04:37:21,14.98332497,0.0002825,69.9993,114.7675,262.7717,97.3121,3.8615e-05,3.68e-06,0.0,0 STARLINK-5911,1 55950U 23037AN  24145.19260927  .00000368  00000-0  38615-4 0  9995,2 55950  69.9993 114.7675 0002825 262.7717  97.3121 14.98332497 66770,6950.185,96.107,574.014,570.087,0.0
55950.0,STARLINK-5911,PAYLOAD,2024-05-24 07:49:37,14.98335152,0.000281,69.9993,114.4312,263.8035,96.2804,6.6943e-05,7.06e-06,0.0,0 STARLINK-5911,1 55950U 23037AN  24145.32612645  .00000706  00000-0  66943-4 0  9999,2 55950  69.9993 114.4312 0002810 263.8035  96.2804 14.98335152 66456,6950.177,96.107,573.995,570.089,0.0
55950.0,STARLINK-5911,PAYLOAD,2024-05-24 20:38:42,14.98325224,0.0002582,70.0,113.0861,258.0246,102.0624,-1.2992e-05,-2.48e-06,0.0,0 STARLINK-5911,1 55950U 23037AN  24145.86021467 -.00000248  00000-0 -12992-4 0  9992,2 55950  70.0000 113.0861 0002582 258.0246 102.0624 14.98325224 66879,6950.208,96.107,573.867,570.278,0.0
55950.0,STARLINK-5911,PAYLOAD,2024-05-24 22:14:50,14.9832391,0.0002583,69.9999,112.9156,257.111,102.976,-2.4584e-05,-3.86e-06,0.0,0 STARLINK-5911,1 55950U 23037AN  24145.92697606 -.00000386  00000-0 -24584-4 0  9996,2 55950  69.9999 112.9156 0002583 257.1110 102.9760 14.98323910 66543,6950.212,96.107,573.872,570.281,0.0
55950.0,STARLINK-5911,PAYLOAD,2024-05-25 07:51:39,14.98323231,0.0002583,69.9997,111.906,257.9161,102.1709,-3.1662e-05,-4.71e-06,0.0,0 STARLINK-5911,1 55950U 23037AN  24146.32753814 -.00000471  00000-0 -31662-4 0  9995,2 55950  69.9997 111.9060 0002583 257.9161 102.1709 14.98323231 66606,6950.214,96.107,573.874,570.284,0.0
55950.0,STARLINK-5911,PAYLOAD,2024-05-25 20:40:43,14.98332469,0.0002558,69.9995,110.5583,262.9644,97.1224,-1.1777e-05,-2.33e-06,0.0,0 STARLINK-5911,1 55950U 23037AN  24146.86161254 -.00000233  00000-0 -11777-4 0  9996,2 55950  69.9995 110.5583 0002558 262.9644  97.1224 14.98332469 67028,6950.185,96.107,573.828,570.272,0.0
55950.0,STARLINK-5911,PAYLOAD,2024-05-26 07:53:39,14.98334097,0.0002558,69.9995,109.3803,260.5445,99.5425,9.4125e-06,1.9e-07,0.0,0 STARLINK-5911,1 55950U 23037AN  24147.32892997  .00000019  00000-0  94125-5 0  9992,2 55950  69.9995 109.3803 0002558 260.5445  99.5425 14.98334097 66759,6950.18,96.107,573.823,570.267,0.0
